start=new Date('2022-01-28T00:00:00.000Z').valueOf();
sats=[{"RCS_SIZE":"LARGE","REV_AT_EPOCH":"10348","BSTAR":"0.00008987600000","INCLINATION":"53.0563","GP_ID":"194754849","APOAPSIS":"548.068","OBJECT_NAME":"STARLINK-1275","SEMIMAJOR_AXIS":"6925.374","DECAY_DATE":null,"MEAN_MOTION_DDOT":"0.0000000000000","RA_OF_ASC_NODE":"39.0315","EPOCH":"2022-01-27T18:17:22.365888","PERIAPSIS":"546.410","MEAN_MOTION":"15.06391667","MEAN_ELEMENT_THEORY":"SGP4","MEAN_MOTION_DOT":"0.00001057","TLE_LINE1":"1 45407U 20019AZ  22027.76206442  .00001057  00000-0  89876-4 0  9991","PERIOD":"95.593","ELEMENT_SET_NO":"999","SITE":"AFETR","ARG_OF_PERICENTER":"80.8004","COUNTRY_CODE":"US","EPHEMERIS_TYPE":"0","FILE":"3285371","CLASSIFICATION_TYPE":"U","LAUNCH_DATE":"2020-03-18","ECCENTRICITY":"0.00011970","CENTER_NAME":"EARTH","TLE_LINE2":"2 45407  53.0563  39.0315 0001197  80.8004 279.3121 15.06391667103488","OBJECT_TYPE":"PAYLOAD","NORAD_CAT_ID":"45407","MEAN_ANOMALY":"279.3121","REF_FRAME":"TEME","TIME_SYSTEM":"UTC","OBJECT_ID":"2020-019AZ"},{"INCLINATION":"53.0546","BSTAR":"0.00012359000000","REV_AT_EPOCH":"10303","RCS_SIZE":"LARGE","SEMIMAJOR_AXIS":"6925.346","OBJECT_NAME":"STARLINK-1278","APOAPSIS":"548.225","GP_ID":"194755290","EPOCH":"2022-01-27T12:13:48.728928","RA_OF_ASC_NODE":"70.1610","MEAN_MOTION_DDOT":"0.0000000000000","DECAY_DATE":null,"MEAN_MOTION_DOT":"0.00001560","MEAN_ELEMENT_THEORY":"SGP4","MEAN_MOTION":"15.06400923","PERIAPSIS":"546.196","COUNTRY_CODE":"US","ARG_OF_PERICENTER":"64.7891","SITE":"AFETR","ELEMENT_SET_NO":"999","TLE_LINE1":"1 45408U 20019BA  22027.50959177  .00001560  00000-0  12359-3 0  9994","PERIOD":"95.592","EPHEMERIS_TYPE":"0","FILE":"3285357","TLE_LINE2":"2 45408  53.0546  70.1610 0001465  64.7891 295.3250 15.06400923103035","CENTER_NAME":"EARTH","CLASSIFICATION_TYPE":"U","LAUNCH_DATE":"2020-03-18","ECCENTRICITY":"0.00014650","OBJECT_ID":"2020-019BA","TIME_SYSTEM":"UTC","REF_FRAME":"TEME","MEAN_ANOMALY":"295.3250","NORAD_CAT_ID":"45408","OBJECT_TYPE":"PAYLOAD"},{"SEMIMAJOR_AXIS":"6925.352","APOAPSIS":"548.145","OBJECT_NAME":"STARLINK-1282","GP_ID":"194740279","INCLINATION":"53.0540","BSTAR":"0.00012002000000","REV_AT_EPOCH":"10338","RCS_SIZE":"LARGE","MEAN_MOTION_DOT":"0.00001507","MEAN_ELEMENT_THEORY":"SGP4","MEAN_MOTION":"15.06398735","PERIAPSIS":"546.290","EPOCH":"2022-01-27T00:58:24.291552","RA_OF_ASC_NODE":"42.2715","MEAN_MOTION_DDOT":"0.0000000000000","DECAY_DATE":null,"FILE":"3284946","EPHEMERIS_TYPE":"0","ARG_OF_PERICENTER":"71.5006","COUNTRY_CODE":"US","SITE":"AFETR","ELEMENT_SET_NO":"999","TLE_LINE1":"1 45409U 20019BB  22027.04055893  .00001507  00000-0  12002-3 0  9992","PERIOD":"95.592","OBJECT_ID":"2020-019BB","TIME_SYSTEM":"UTC","REF_FRAME":"TEME","MEAN_ANOMALY":"288.6128","NORAD_CAT_ID":"45409","OBJECT_TYPE":"PAYLOAD","TLE_LINE2":"2 45409  53.0540  42.2715 0001339  71.5006 288.6128 15.06398735103384","CENTER_NAME":"EARTH","ECCENTRICITY":"0.00013390","LAUNCH_DATE":"2020-03-18","CLASSIFICATION_TYPE":"U"},{"PERIOD":"91.329","TLE_LINE1":"1 45410U 20019BC  22027.46742500 -.00011488  00000-0 -66316-4 0  9997","ELEMENT_SET_NO":"999","ARG_OF_PERICENTER":"32.1505","COUNTRY_CODE":"US","SITE":"AFETR","FILE":"3285274","EPHEMERIS_TYPE":"0","LAUNCH_DATE":"2020-03-18","CLASSIFICATION_TYPE":"U","ECCENTRICITY":"0.00020900","CENTER_NAME":"EARTH","TLE_LINE2":"2 45410  53.0515 301.5347 0002090  32.1505 327.9641 15.76709628104812","OBJECT_TYPE":"PAYLOAD","MEAN_ANOMALY":"327.9641","NORAD_CAT_ID":"45410","REF_FRAME":"TEME","OBJECT_ID":"2020-019BC","TIME_SYSTEM":"UTC","REV_AT_EPOCH":"10481","RCS_SIZE":"LARGE","BSTAR":"-0.00006631600000","INCLINATION":"53.0515","GP_ID":"194753144","SEMIMAJOR_AXIS":"6717.908","APOAPSIS":"341.177","OBJECT_NAME":"STARLINK-1285","DECAY_DATE":null,"MEAN_MOTION_DDOT":"0.0000000000000","RA_OF_ASC_NODE":"301.5347","EPOCH":"2022-01-27T11:13:05.520000","MEAN_MOTION":"15.76709628","PERIAPSIS":"338.369","MEAN_ELEMENT_THEORY":"SGP4","MEAN_MOTION_DOT":"-0.00011488"},{"TLE_LINE2":"2 45411  53.0542  39.2197 0001460  77.4696 282.6456 15.06406882103486","CENTER_NAME":"EARTH","LAUNCH_DATE":"2020-03-18","CLASSIFICATION_TYPE":"U","ECCENTRICITY":"0.00014600","OBJECT_ID":"2020-019BD","TIME_SYSTEM":"UTC","REF_FRAME":"TEME","MEAN_ANOMALY":"282.6456","NORAD_CAT_ID":"45411","OBJECT_TYPE":"PAYLOAD","ARG_OF_PERICENTER":"77.4696","COUNTRY_CODE":"US","SITE":"AFETR","ELEMENT_SET_NO":"999","TLE_LINE1":"1 45411U 20019BD  22027.71876658  .00000695  00000-0  65547-4 0  9999","PERIOD":"95.592","FILE":"3285281","EPHEMERIS_TYPE":"0","EPOCH":"2022-01-27T17:15:01.432512","RA_OF_ASC_NODE":"39.2197","MEAN_MOTION_DDOT":"0.0000000000000","DECAY_DATE":null,"MEAN_MOTION_DOT":"0.00000695","MEAN_ELEMENT_THEORY":"SGP4","MEAN_MOTION":"15.06406882","PERIAPSIS":"546.181","INCLINATION":"53.0542","BSTAR":"0.00006554700000","REV_AT_EPOCH":"10348","RCS_SIZE":"LARGE","SEMIMAJOR_AXIS":"6925.327","OBJECT_NAME":"STARLINK-1293","APOAPSIS":"548.204","GP_ID":"194752654"},{"OBJECT_ID":"2020-019BE","TIME_SYSTEM":"UTC","REF_FRAME":"TEME","MEAN_ANOMALY":"285.2582","NORAD_CAT_ID":"45412","OBJECT_TYPE":"PAYLOAD","TLE_LINE2":"2 45412  53.0571  39.0915 0001936  74.8622 285.2582 15.06360231103489","CENTER_NAME":"EARTH","LAUNCH_DATE":"2020-03-18","CLASSIFICATION_TYPE":"U","ECCENTRICITY":"0.00019360","FILE":"3285276","EPHEMERIS_TYPE":"0","COUNTRY_CODE":"US","ARG_OF_PERICENTER":"74.8622","SITE":"AFETR","ELEMENT_SET_NO":"999","TLE_LINE1":"1 45412U 20019BE  22027.75199194 -.00003438  00000-0 -21224-3 0  9990","PERIOD":"95.595","MEAN_MOTION_DOT":"-0.00003438","MEAN_ELEMENT_THEORY":"SGP4","MEAN_MOTION":"15.06360231","PERIAPSIS":"545.995","EPOCH":"2022-01-27T18:02:52.103616","RA_OF_ASC_NODE":"39.0915","MEAN_MOTION_DDOT":"0.0000000000000","DECAY_DATE":null,"SEMIMAJOR_AXIS":"6925.470","OBJECT_NAME":"STARLINK-1296","APOAPSIS":"548.676","GP_ID":"194752673","INCLINATION":"53.0571","BSTAR":"-0.00021224000000","REV_AT_EPOCH":"10348","RCS_SIZE":"LARGE"},{"GP_ID":"194755300","OBJECT_NAME":"STARLINK-1298","APOAPSIS":"548.341","SEMIMAJOR_AXIS":"6925.355","RCS_SIZE":"LARGE","REV_AT_EPOCH":"10357","BSTAR":"0.00006466600000","INCLINATION":"53.0536","PERIAPSIS":"546.099","MEAN_MOTION":"15.06397979","MEAN_ELEMENT_THEORY":"SGP4","MEAN_MOTION_DOT":"0.00000682","DECAY_DATE":null,"MEAN_MOTION_DDOT":"0.0000000000000","RA_OF_ASC_NODE":"39.2477","EPOCH":"2022-01-27T17:09:43.807968","FILE":"3285358","EPHEMERIS_TYPE":"0","PERIOD":"95.592","TLE_LINE1":"1 45413U 20019BF  22027.71509037  .00000682  00000-0  64666-4 0  9992","ELEMENT_SET_NO":"999","SITE":"AFETR","ARG_OF_PERICENTER":"80.2371","COUNTRY_CODE":"US","OBJECT_TYPE":"PAYLOAD","NORAD_CAT_ID":"45413","MEAN_ANOMALY":"279.8801","REF_FRAME":"TEME","TIME_SYSTEM":"UTC","OBJECT_ID":"2020-019BF","LAUNCH_DATE":"2020-03-18","CLASSIFICATION_TYPE":"U","ECCENTRICITY":"0.00016190","CENTER_NAME":"EARTH","TLE_LINE2":"2 45413  53.0536  39.2477 0001619  80.2371 279.8801 15.06397979103578"},{"OBJECT_TYPE":"PAYLOAD","MEAN_ANOMALY":"276.6455","NORAD_CAT_ID":"45414","REF_FRAME":"TEME","OBJECT_ID":"2020-019BG","TIME_SYSTEM":"UTC","CLASSIFICATION_TYPE":"U","LAUNCH_DATE":"2020-03-18","ECCENTRICITY":"0.00012250","CENTER_NAME":"EARTH","TLE_LINE2":"2 45414  53.0546  39.0141 0001225  83.4673 276.6455 15.06392073103490","FILE":"3285282","EPHEMERIS_TYPE":"0","TLE_LINE1":"1 45414U 20019BG  22027.76668787 -.00000054  00000-0  15298-4 0  9997","PERIOD":"95.593","ELEMENT_SET_NO":"999","ARG_OF_PERICENTER":"83.4673","COUNTRY_CODE":"US","SITE":"AFETR","MEAN_MOTION":"15.06392073","PERIAPSIS":"546.389","MEAN_ELEMENT_THEORY":"SGP4","MEAN_MOTION_DOT":"-0.00000054","DECAY_DATE":null,"RA_OF_ASC_NODE":"39.0141","MEAN_MOTION_DDOT":"0.0000000000000","EPOCH":"2022-01-27T18:24:01.831968","GP_ID":"194753596","SEMIMAJOR_AXIS":"6925.373","APOAPSIS":"548.086","OBJECT_NAME":"STARLINK-1309","REV_AT_EPOCH":"10349","RCS_SIZE":"LARGE","BSTAR":"0.00001529800000","INCLINATION":"53.0546"},{"GP_ID":"194753227","SEMIMAJOR_AXIS":"6925.334","APOAPSIS":"548.053","OBJECT_NAME":"STARLINK-1316","REV_AT_EPOCH":"10350","RCS_SIZE":"LARGE","BSTAR":"0.00007933800000","INCLINATION":"53.0551","MEAN_MOTION":"15.06404754","PERIAPSIS":"546.345","MEAN_ELEMENT_THEORY":"SGP4","MEAN_MOTION_DOT":"0.00000901","DECAY_DATE":null,"MEAN_MOTION_DDOT":"0.0000000000000","RA_OF_ASC_NODE":"39.1854","EPOCH":"2022-01-27T17:25:39.006624","FILE":"3285283","EPHEMERIS_TYPE":"0","TLE_LINE1":"1 45415U 20019BH  22027.72614591  .00000901  00000-0  79338-4 0  9993","PERIOD":"95.592","ELEMENT_SET_NO":"999","COUNTRY_CODE":"US","ARG_OF_PERICENTER":"79.7069","SITE":"AFETR","OBJECT_TYPE":"PAYLOAD","MEAN_ANOMALY":"280.4059","NORAD_CAT_ID":"45415","REF_FRAME":"TEME","OBJECT_ID":"2020-019BH","TIME_SYSTEM":"UTC","CLASSIFICATION_TYPE":"U","LAUNCH_DATE":"2020-03-18","ECCENTRICITY":"0.00012330","CENTER_NAME":"EARTH","TLE_LINE2":"2 45415  53.0551  39.1854 0001233  79.7069 280.4059 15.06404754103500"},{"MEAN_MOTION_DOT":"-0.00000040","MEAN_MOTION":"15.06398699","PERIAPSIS":"546.219","MEAN_ELEMENT_THEORY":"SGP4","EPOCH":"2022-01-27T02:18:01.846944","DECAY_DATE":null,"MEAN_MOTION_DDOT":"0.0000000000000","RA_OF_ASC_NODE":"42.0354","GP_ID":"194740037","SEMIMAJOR_AXIS":"6925.353","APOAPSIS":"548.216","OBJECT_NAME":"STARLINK-1318","BSTAR":"0.00001622200000","INCLINATION":"53.0551","REV_AT_EPOCH":"10339","RCS_SIZE":"LARGE","REF_FRAME":"TEME","OBJECT_ID":"2020-019BJ","TIME_SYSTEM":"UTC","OBJECT_TYPE":"PAYLOAD","MEAN_ANOMALY":"273.7432","NORAD_CAT_ID":"45416","CENTER_NAME":"EARTH","TLE_LINE2":"2 45416  53.0551  42.0354 0001442  86.3721 273.7432 15.06398699103397","LAUNCH_DATE":"2020-03-18","CLASSIFICATION_TYPE":"U","ECCENTRICITY":"0.00014420","EPHEMERIS_TYPE":"0","FILE":"3284946","ELEMENT_SET_NO":"999","COUNTRY_CODE":"US","ARG_OF_PERICENTER":"86.3721","SITE":"AFETR","TLE_LINE1":"1 45416U 20019BJ  22027.09585471 -.00000040  00000-0  16222-4 0  9996","PERIOD":"95.592"}];
